OBJECT_NAME,OBJECT_ID,EPOCH,MEAN_MOTION,ECCENTRICITY,INCLINATION,RA_OF_ASC_NODE,ARG_OF_PERICENTER,MEAN_ANOMALY,EPHEMERIS_TYPE,CLASSIFICATION_TYPE,NORAD_CAT_ID,ELEMENT_SET_NO,REV_AT_EPOCH,BSTAR,MEAN_MOTION_DOT,MEAN_MOTION_DDOT
STARLINK-37227,2026-070S,2026-05-09T03:23:31.405344,15.49311362,.0001094,53.1596,82.9744,83.7648,276.3486,0,U,68558,999,579,.63145E-3,.3483E-3,0
STARLINK-37294,2026-070T,2026-05-09T03:22:11.364384,15.49312478,.0001069,53.1595,82.9685,88.4574,271.6558,0,U,68559,999,579,.13992E-2,.7816E-3,0
STARLINK-37291,2026-070U,2026-05-09T03:20:41.883360,15.49324990,.0001221,53.1596,82.9621,75.6838,284.4307,0,U,68560,999,579,.7848E-3,.43467E-3,0
STARLINK-37114,2026-070V,2026-05-09T04:31:41.316960,15.49313196,.0001097,53.1599,82.5535,94.4879,265.6255,0,U,68561,999,580,.10387E-2,.57758E-3,0
STARLINK-37233,2026-070W,2026-05-09T04:00:01.998720,15.50221248,.0001242,53.1590,81.7026,135.9708,213.1730,0,U,68562,999,607,-.2612E-1,-.1350927E-1,0
STARLINK-36238,2026-070X,2026-05-09T04:35:26.054592,15.49310761,.00013,53.1598,82.5724,103.3530,256.7624,0,U,68563,999,580,.77738E-3,.43027E-3,0
STARLINK-37008,2026-070Y,2026-05-09T04:00:01.998720,15.49286925,.0001557,53.1597,81.8813,102.6093,158.4362,0,U,68564,999,604,.6883E-3,.37989E-3,0
STARLINK-37161,2026-070Z,2026-05-09T04:00:01.998720,15.49212278,.0002087,53.1591,81.7519,93.5641,231.1815,0,U,68565,999,607,.11229E-2,.6229E-3,0
STARLINK-37212,2026-070AA,2026-05-09T04:03:09.442656,15.49318529,.0000949,53.1590,82.4220,88.1963,271.9155,0,U,68566,999,580,.13429E-2,.74986E-3,0
STARLINK-37261,2026-070AB,2026-05-09T04:00:01.998720,15.54184421,.0000866,53.1590,81.6973,91.0240,260.8239,0,U,68567,999,604,-.32254E-1,-.1886585E-1,0
STARLINK-37283,2026-070AC,2026-05-09T04:00:01.998720,15.49826357,.0001467,53.1594,82.3144,98.0632,313.9063,0,U,68568,999,602,-.15519E-1,-.806442E-2,0
STARLINK-37256,2026-070AD,2026-05-09T03:42:29.784960,15.49321121,.0001032,53.1597,83.0699,95.2589,264.8538,0,U,68569,999,579,.97622E-3,.54246E-3,0
STARLINK-37228,2026-070AE,2026-05-09T03:29:44.791584,15.49317358,.0001407,53.1597,83.0106,104.9840,255.1324,0,U,68570,999,579,.78124E-3,.43255E-3,0
MERIDIAN-M 21L,2026-071A,2026-05-08T08:04:29.654976,2.00619170,.72017664,62.7874,234.0801,285.0767,11.1243,0,U,68571,999,71,0,.2E-6,0
KUIPER-00131,2026-072A,2026-05-09T04:00:01.998720,14.95553505,.000771,51.8942,8.7298,238.2947,91.4767,0,U,68573,999,505,.21571E-2,.24016E-3,0
KUIPER-00189,2026-072B,2026-05-09T04:00:01.998720,14.94348996,.0001804,51.8944,10.4483,255.1565,305.6051,0,U,68574,999,587,.14005E-2,.15002E-3,0
KUIPER-00192,2026-072C,2026-05-09T04:00:01.998720,15.08627761,.0005968,51.8878,7.1897,256.0284,230.3998,0,U,68575,999,499,.19657E-2,.30987E-3,0
KUIPER-00193,2026-072D,2026-05-08T22:32:58.250112,15.38176658,.0003754,51.8766,6.6347,210.2526,149.8245,0,U,68576,999,534,.70461E-3,.26613E-3,0
KUIPER-00194,2026-072E,2026-05-09T04:00:01.998720,15.20624566,.0002772,51.8826,6.1287,211.0380,59.4046,0,U,68577,999,581,-.10461E+0,-.2089509E-1,0
KUIPER-00229,2026-072F,2026-05-09T04:00:01.998720,15.02898885,.00089,51.8864,8.4026,258.4562,1.7051,0,U,68578,999,572,-.13876E+0,-.1722133E-1,0
KUIPER-00230,2026-072G,2026-05-08T22:19:19.324128,15.37215843,.0001612,51.8787,6.5699,221.4534,138.6331,0,U,68579,999,534,.82398E-3,.30233E-3,0
KUIPER-00231,2026-072H,2026-05-08T22:21:21.517056,15.38696737,.0002526,51.8768,6.5830,208.5005,151.5845,0,U,68580,999,534,.44002E-3,.16734E-3,0
KUIPER-00234,2026-072J,2026-05-09T04:08:39.495840,15.28429443,.0002097,51.8836,5.9014,220.4964,139.5864,0,U,68581,999,537,-.35838E-2,-.99627E-3,0
KUIPER-00236,2026-072K,2026-05-09T04:00:01.998720,15.36368151,.0002623,51.8783,5.4265,186.4306,46.0461,0,U,68582,999,511,.12085E-2,.43394E-3,0
KUIPER-00244,2026-072L,2026-05-08T22:25:21.257184,15.38488103,.0003287,51.8776,6.6005,220.5231,139.5511,0,U,68583,999,534,.76861E-3,.29375E-3,0
KUIPER-00253,2026-072M,2026-05-08T22:40:59.066112,15.37981855,.0004798,51.8734,6.6642,223.7871,136.2735,0,U,68584,999,534,.64646E-3,.24223E-3,0
KUIPER-00254,2026-072N,2026-05-08T22:58:34.813632,15.37449376,.0007303,51.8734,6.7416,227.3917,132.6454,0,U,68585,999,534,.67702E-3,.24961E-3,0
KUIPER-00263,2026-072P,2026-05-08T22:17:36.980736,15.37429702,.0001437,51.8789,6.5637,176.1434,183.9564,0,U,68586,999,534,.10285E-2,.38139E-3,0
KUIPER-00269,2026-072Q,2026-05-08T22:35:04.792416,15.38168811,.0004327,51.8760,6.6423,212.6305,147.4415,0,U,68587,999,534,.94504E-3,.35866E-3,0
KUIPER-00272,2026-072R,2026-05-09T04:00:01.998720,15.05911750,.0004861,51.8938,7.1967,239.8504,146.6073,0,U,68588,999,490,-.16072E-2,-.23852E-3,0
