STARLINK-37227          
1 68558U 26070S   26129.14133571  .00034830  00000+0  63145-3 0  9991
2 68558  53.1596  82.9744 0001094  83.7648 276.3486 15.49311362  5799
STARLINK-37294          
1 68559U 26070T   26129.14040931  .00078160  00000+0  13992-2 0  9997
2 68559  53.1595  82.9685 0001069  88.4574 271.6558 15.49312478  5792
STARLINK-37291          
1 68560U 26070U   26129.13937365  .00043467  00000+0  78480-3 0  9990
2 68560  53.1596  82.9621 0001221  75.6838 284.4307 15.49324990  5792
STARLINK-37114          
1 68561U 26070V   26129.18867265  .00057758  00000+0  10387-2 0  9996
2 68561  53.1599  82.5535 0001097  94.4879 265.6255 15.49313196  5802
STARLINK-37233          
1 68562U 26070W   26129.16668980 -.01350927  00000+0 -26120-1 0  9996
2 68562  53.1590  81.7026 0001242 135.9708 213.1730 15.50221248  6078
STARLINK-36238          
1 68563U 26070X   26129.19127378  .00043027  00000+0  77738-3 0  9991
2 68563  53.1598  82.5724 0001300 103.3530 256.7624 15.49310761  5800
STARLINK-37008          
1 68564U 26070Y   26129.16668980  .00037989  00000+0  68830-3 0  9991
2 68564  53.1597  81.8813 0001557 102.6093 158.4362 15.49286925  6049
STARLINK-37161          
1 68565U 26070Z   26129.16668980  .00062290  00000+0  11229-2 0  9994
2 68565  53.1591  81.7519 0002087  93.5641 231.1815 15.49212278  6077
STARLINK-37212          
1 68566U 26070AA  26129.16885929  .00074986  00000+0  13429-2 0  9998
2 68566  53.1590  82.4220 0000949  88.1963 271.9155 15.49318529  5801
STARLINK-37261          
1 68567U 26070AB  26129.16668980 -.01886585  00000+0 -32254-1 0  9990
2 68567  53.1590  81.6973 0000866  91.0240 260.8239 15.54184421  6042
STARLINK-37283          
1 68568U 26070AC  26129.16668980 -.00806442  00000+0 -15519-1 0  9999
2 68568  53.1594  82.3144 0001467  98.0632 313.9063 15.49826357  6023
STARLINK-37256          
1 68569U 26070AD  26129.15451140  .00054246  00000+0  97622-3 0  9999
2 68569  53.1597  83.0699 0001032  95.2589 264.8538 15.49321121  5791
STARLINK-37228          
1 68570U 26070AE  26129.14565731  .00043255  00000+0  78124-3 0  9996
2 68570  53.1597  83.0106 0001407 104.9840 255.1324 15.49317358  5793
MERIDIAN-M 21L          
1 68571U 26071A   26128.33645434  .00000020  00000+0  00000+0 0  9994
2 68571  62.7874 234.0801 7201766 285.0767  11.1243  2.00619170   711
KUIPER-00131            
1 68573U 26072A   26129.16668980  .00024016  00000+0  21571-2 0  9990
2 68573  51.8942   8.7298 0007710 238.2947  91.4767 14.95553505  5050
KUIPER-00189            
1 68574U 26072B   26129.16668980  .00015002  00000+0  14005-2 0  9990
2 68574  51.8944  10.4483 0001804 255.1565 305.6051 14.94348996  5872
KUIPER-00192            
1 68575U 26072C   26129.16668980  .00030987  00000+0  19657-2 0  9998
2 68575  51.8878   7.1897 0005968 256.0284 230.3998 15.08627761  4996
KUIPER-00193            
1 68576U 26072D   26128.93956308  .00026613  00000+0  70461-3 0  9999
2 68576  51.8766   6.6347 0003754 210.2526 149.8245 15.38176658  5345
KUIPER-00194            
1 68577U 26072E   26129.16668980 -.02089509  00000+0 -10461+0 0  9999
2 68577  51.8826   6.1287 0002772 211.0380  59.4046 15.20624566  5811
KUIPER-00229            
1 68578U 26072F   26129.16668980 -.01722133  00000+0 -13876+0 0  9999
2 68578  51.8864   8.4026 0008900 258.4562   1.7051 15.02898885  5729
KUIPER-00230            
1 68579U 26072G   26128.93008477  .00030233  00000+0  82398-3 0  9992
2 68579  51.8787   6.5699 0001612 221.4534 138.6331 15.37215843  5345
KUIPER-00231            
1 68580U 26072H   26128.93149904  .00016734  00000+0  44002-3 0  9995
2 68580  51.8768   6.5830 0002526 208.5005 151.5845 15.38696737  5347
KUIPER-00234            
1 68581U 26072J   26129.17267935 -.00099627  00000+0 -35838-2 0  9998
2 68581  51.8836   5.9014 0002097 220.4964 139.5864 15.28429443  5378
KUIPER-00236            
1 68582U 26072K   26129.16668980  .00043394  00000+0  12085-2 0  9990
2 68582  51.8783   5.4265 0002623 186.4306  46.0461 15.36368151  5113
KUIPER-00244            
1 68583U 26072L   26128.93427381  .00029375  00000+0  76861-3 0  9999
2 68583  51.8776   6.6005 0003287 220.5231 139.5511 15.38488103  5346
KUIPER-00253            
1 68584U 26072M   26128.94512808  .00024223  00000+0  64646-3 0  9995
2 68584  51.8734   6.6642 0004798 223.7871 136.2735 15.37981855  5344
KUIPER-00254            
1 68585U 26072N   26128.95734738  .00024961  00000+0  67702-3 0  9990
2 68585  51.8734   6.7416 0007303 227.3917 132.6454 15.37449376  5346
KUIPER-00263            
1 68586U 26072P   26128.92890024  .00038139  00000+0  10285-2 0  9994
2 68586  51.8789   6.5637 0001437 176.1434 183.9564 15.37429702  5349
KUIPER-00269            
1 68587U 26072Q   26128.94102769  .00035866  00000+0  94504-3 0  9990
2 68587  51.8760   6.6423 0004327 212.6305 147.4415 15.38168811  5349
KUIPER-00272            
1 68588U 26072R   26129.16668980 -.00023852  00000+0 -16072-2 0  9995
2 68588  51.8938   7.1967 0004861 239.8504 146.6073 15.05911750  4905
